STEP CUBE LAB           
1 43138U 18004AD  21010.72544812  .00002004  00000-0  80588-4 0  9998
2 43138  97.4294  87.5799 0009744  52.0009 308.2108 15.26050798166694
XIAOXIANG-2             
1 43155U 18008A   21011.51210920  .00001095  00000-0  67131-4 0  9997
2 43155  97.4246  81.0652 0018419 146.2565 327.2390 15.12052157164350
ZHOU ENLAI              
1 43156U 18008B   21011.47295354  .00001257  00000-0  77520-4 0  9990
2 43156  97.4287  80.8629 0015425 145.1041 341.3860 15.11625983164292
QUANTUTONG 1            
1 43158U 18008D   21011.14760345  .00000624  00000-0  40903-4 0  9995
2 43158  97.4233  79.3384 0014186 144.5101 274.9519 15.11105995164185
S-NET D                 
1 43186U 18014G   21010.74376298  .00000345  00000-0  35069-4 0  9995
2 43186  97.6860 281.0839 0009736 247.4387 112.5805 14.96941273160703
S-NET B                 
1 43187U 18014H   21010.74363167  .00000337  00000-0  34396-4 0  9990
2 43187  97.6858 281.0558 0009733 247.3390 112.6803 14.96940845160702
S-NET A                 
1 43188U 18014J   21010.74355028  .00000336  00000-0  34274-4 0  9992
2 43188  97.6861 281.0937 0009728 247.4702 112.5490 14.96939530160700
S-NET C                 
1 43189U 18014K   21010.74404385  .00000357  00000-0  36079-4 0  9992
2 43189  97.6858 281.0501 0009719 247.2771 112.7424 14.96939811159257
FENGMANIU-1 (FMN-1)     
1 43192U 18015A   21011.50731293  .00002964  00000-0  11484-3 0  9991
2 43192  97.4660 146.4904 0016575  77.7606 346.7243 15.26835371163637
SHAONIAN XING           
1 43199U 18015H   21011.49622144  .00002133  00000-0  83807-4 0  9997
2 43199  97.4448 144.1710 0017867  86.6401 337.9583 15.26672535163691
UBAKUSAT                
1 43467U 98067NQ  20362.27906033  .06269310  12352-4  52456-3 0  9996
2 43467  51.6190 354.3668 0001241 137.3285 222.7838 16.38845679150702
LUOJIA-1 01             
1 43485U 18048B   21011.48056580  .00000176  00000-0  32383-4 0  9993
2 43485  97.9750  95.2042 0012722  83.6697 276.5967 14.76777259140820
EQUISAT                 
1 43552U 98067PA  20361.21801847  .10316869  12478-4  50011-3 0  9992
2 43552  51.6122   8.3673 0000676 209.2273 150.8717 16.43170683140619
RADSAT-G                
1 43553U 98067PB  21011.19562852  .00064049  00000-0  27339-3 0  9993
2 43553  51.6373 309.2686 0006028 137.0416 223.1059 15.84547907142884
SURFSAT                 
1 43614U 18070B   21010.72088261  .00003263  00000-0  80076-4 0  9991
2 43614  93.0258 240.4903 0011860 253.3614 106.6340 15.40691613130379
CP7 (DAVE)              
1 43615U 18070C   21010.71145876  .00003007  00000-0  74366-4 0  9998
2 43615  93.0262 240.4612 0012055 253.1413 106.8520 15.40460604130369
ELFIN-B                 
1 43616U 18070D   21010.72731948  .00004315  00000-0  99517-4 0  9999
2 43616  93.0219 240.5059 0012086 253.1500 106.8431 15.42539710130446
ELFIN-A                 
1 43617U 18070E   21010.72728099  .00004809  00000-0  10972-3 0  9998
2 43617  93.0275 241.2022 0011506 248.9512 111.0514 15.42863533130452
1998-067PP              
1 43639U 98067PP  21010.55787112  .00083850  00000-0  31807-3 0  9991
2 43639  51.6295 318.2316 0006004 114.1863 245.9769 15.86885494129432
STARS-ME                
1 43640U 98067PQ  21010.38799092  .00029859  00000-0  19633-3 0  9996
2 43640  51.6326 332.9271 0005282  95.0243 265.1360 15.75414330129221
CZ-4B R/B               
1 43656U 18081B   21010.74673288 -.00000016  00000-0  12836-4 0  9993
2 43656  99.3696  98.8724 0208338 206.1656 152.8879 14.30450417115620
CUBEBEL-1 (BSUSAT-1)    
1 43666U 18083E   21011.48136209  .00001482  00000-0  74365-4 0  9997
2 43666  97.4725  41.7401 0015011   3.1247 134.1371 15.18807380122188
CHANGSHAGAOXIN (TY 4-01)
1 43669U 18083H   21011.48195372  .00001009  00000-0  53302-4 0  9999
2 43669  97.4618  39.2964 0010839   0.2955 131.7778 15.17719712122077
TEN-KOH                 
1 43677U 18084G   21010.75258573  .00000256  00000-0  32139-4 0  9999
2 43677  97.9023 133.6034 0015793 190.0494 170.0410 14.90383434119813
DIWATA-2B               
1 43678U 18084H   21011.49163967 -.00000056  00000-0  19158-6 0  9991
2 43678  97.9039 136.1857 0009377 201.4741 158.6104 14.91693870120032
STARS-AO                
1 43679U 18084J   21010.60559453  .00000314  00000-0  36349-4 0  9998
2 43679  97.9088 136.2705 0008430 212.3777 147.6925 14.92373830119948
AUTCUBE 2               
1 43681U 18084K   21010.59171804  .00000053  00000-0  10960-4 0  9990
2 43681  97.9054 135.5347 0008876 205.4993 154.5789 14.91974933119872
IRVINE01                
1 43693U 18088D   21010.79921984  .00003441  00000-0  13908-3 0  9999
2 43693  85.0354 299.6392 0014571 245.1970 114.7758 15.24255127120413
ES'HAIL 2               
1 43700U 18090A   21011.15388628  .00000143  00000-0  00000+0 0  9995
2 43700   0.0143 338.5400 0001443   6.4257 207.0866  1.00269208  8031
FACSAT-1                
1 43721U 18096C   21011.47833867  .00001875  00000-0  70886-4 0  9996
2 43721  97.4031  89.7885 0018768 106.2263  20.8642 15.28084816118148
CENTAURI-2              
1 43722U 18096D   21010.74019051  .00002619  00000-0  95582-4 0  9994
2 43722  97.4044  89.5714 0018555 108.3300 251.9960 15.28889599118052
3CAT-1                  
1 43728U 18096K   21011.50910322  .00002727  00000-0  98461-4 0  9995
2 43728  97.4044  90.8166 0018491 109.3685  15.5978 15.29202681118190
INNOSAT-2               
1 43738U 18096V   21011.46342909  .00003940  00000-0  12935-3 0  9990
2 43738  97.4078  93.2026 0023849 109.2295  20.8740 15.31911998118354
REAKTOR HELLO WORLD     
1 43743U 18096AA  21010.67247198  .00001629  00000-0  61884-4 0  9992
2 43743  97.4028  89.3460 0019029 113.6662 246.6577 15.28118241118032
ELYSIUM STAR 2 & LFF    
1 43760U 18099C   21010.95959066  .00001498  00000-0  13852-3 0  9994
2 43760  97.6889  85.2805 0013082 207.5374 152.5159 14.96007530114963
2018-099D               
1 43761U 18099D   21010.75226393  .00000724  00000-0  70957-4 0  9994
2 43761  97.6866  84.6933 0013582 211.3134 148.7285 14.95222238114900
AISTECHSAT 2            
1 43768U 18099L   21010.73231708  .00000485  00000-0  49766-4 0  9993
2 43768  97.6827  83.7518 0010811 209.8202 150.2404 14.94792130114580
FOX-1CLIFF (AO-95)      
1 43770U 18099N   21010.71893265  .00000071  00000-0  11658-4 0  9996
2 43770  97.6850  84.2539 0013701 220.6688 139.3511 14.95163360114886
RANGE-A                 
1 43772U 18099Q   21010.70964698  .00000074  00000-0  11919-4 0  9999
2 43772  97.6929  85.0102 0013527 207.1407 152.9108 14.95415634114882
RANGE-B                 
1 43773U 18099R   21010.64824865 -.00000103  00000-0 -41652-5 0  9997
2 43773  97.6789  83.6564 0012917 207.0581 152.9968 14.95097251114860
2018-099T               
1 43775U 18099T   21010.72453259  .00000085  00000-0  12905-4 0  9998
2 43775  97.6852  84.4650 0013962 211.2480 148.7912 14.95181560114885
MOVE-II                 
1 43780U 18099Y   21010.73923287  .00000969  00000-0  92201-4 0  9996
2 43780  97.6861  84.6442 0012776 216.5186 143.5165 14.95675437114890
SNUSAT-2                
1 43782U 18099AA  21010.71083128 -.00000118  00000-0 -55155-5 0  9993
2 43782  97.6848  84.5319 0012130 205.7263 154.3356 14.95420043114892
SNUGLITE                
1 43784U 18099AC  21010.73170259  .00000507  00000-0  50816-4 0  9997
2 43784  97.6811  84.3208 0014392 214.1311 145.8986 14.95528570114910
ITASAT 1                
1 43786U 18099AE  21010.73718112  .00000583  00000-0  57754-4 0  9997
2 43786  97.6867  84.8394 0014480 213.3132 146.7179 14.95478657114918
KAZSCISAT-1             
1 43787U 18099AF  21010.70569634  .00000081  00000-0  12341-4 0  9994
2 43787  97.6781  84.0664 0013480 210.8077 149.2355 14.95871149114923
EAGLET-I                
1 43790U 18099AJ  21010.74346082  .00000736  00000-0  70915-4 0  9990
2 43790  97.6858  85.1915 0012676 216.7387 143.2967 14.95857975114630
ESEO                    
1 43792U 18099AL  21010.70632125 -.00000306  00000-0 -22354-4 0  9993
2 43792  97.6829  84.8622 0012397 214.4494 145.5925 14.95675884114686
CSIM-FD                 
1 43793U 18099AM  21010.74361633  .00001045  00000-0  97331-4 0  9997
2 43793  97.6841  85.0588 0012524 209.4104 150.6413 14.96332807114684
ASTROCAST 0.1           
1 43798U 18099AS  21010.71156943 -.00000202  00000-0 -12916-4 0  9997
2 43798  97.6859  85.3061 0011994 195.9930 164.0914 14.96008749114931
JY1SAT (JO-97)          
1 43803U 18099AX  21010.72523047  .00000268  00000-0  29178-4 0  9996
2 43803  97.6826  84.6023 0014477 213.8729 146.1569 14.95690762114913
SUOMI-100               
1 43804U 18099AY  21010.72811623  .00000352  00000-0  36735-4 0  9998
2 43804  97.6825  84.5833 0014538 213.9046 146.1247 14.95670424114929
AL-FARABI 2             
1 43805U 18099AZ  21010.95053455  .00000868  00000-0  82702-4 0  9992
2 43805  97.6831  84.9526 0014465 211.5586 148.4770 14.95844496114964
CENTAURI-1              
1 43809U 18099BD  21010.74182049  .00000678  00000-0  65940-4 0  9999
2 43809  97.6841  84.8694 0014451 214.5053 145.5231 14.95709497114625
PW-SAT2                 
1 43814U 18099BJ  21011.41274503  .00156075  00000-0  37368-2 0  9991
2 43814  97.7886 105.1121 0011435 232.0343 127.9870 15.40770060115325
CHOMPTT                 
1 43855U 18104G   21010.51210114  .00001219  00000-0  49184-4 0  9991
2 43855  85.0359  38.1545 0017776  16.8952 343.2879 15.23488974115040
DAVINCI                 
1 43857U 18104J   21010.74924458  .00002847  00000-0  11512-3 0  9992
2 43857  85.0315  38.0505 0016534  41.6854 318.5645 15.24123233115059
UWE-4                   
1 43880U 18111E   21010.74755949  .00000635  00000-0  60704-4 0  9994
2 43880  97.6955 281.0997 0010797 272.4197  87.5789 14.96688440111498
ZACUBE-2                
1 43907U 18111AH  21011.51287808  .00000645  00000-0  28569-4 0  9998
2 43907  97.2486 270.7843 0022668 125.5265 337.3960 15.24905101113714
